{
    "links": {
        "self": "http://www.neowsapp.com/rest/v1/neo/3757400?api_key=iIulBulltgU6a56xZRHN4H3l9WmuAYTsLGpBGhQ2"
    },
    "id": "3757400",
    "neo_reference_id": "3757400",
    "name": "(2016 PR39)",
    "designation": "2016 PR39",
    "nasa_jpl_url": "http://ssd.jpl.nasa.gov/sbdb.cgi?sstr=3757400",
    "absolute_magnitude_h": 24.0,
    "estimated_diameter": {
        "kilometers": {
            "estimated_diameter_min": 0.0421264611,
            "estimated_diameter_max": 0.0941976306
        },
        "meters": {
            "estimated_diameter_min": 42.1264610556,
            "estimated_diameter_max": 94.1976305719
        },
        "miles": {
            "estimated_diameter_min": 0.0261761612,
            "estimated_diameter_max": 0.0585316759
        },
        "feet": {
            "estimated_diameter_min": 138.2101784897,
            "estimated_diameter_max": 309.0473542854
        }
    },
    "is_potentially_hazardous_asteroid": false,
    "close_approach_data": [
        {
            "close_approach_date": "2016-09-06",
            "close_approach_date_full": "2016-Sep-06 08:37",
            "epoch_date_close_approach": 1473151020000,
            "relative_velocity": {
                "kilometers_per_second": "11.0385419272",
                "kilometers_per_hour": "39738.750937979",
                "miles_per_hour": "24692.1144369904"
            },
            "miss_distance": {
                "astronomical": "0.0475327926",
                "lunar": "18.4902563214",
                "kilometers": "7110804.528111762",
                "miles": "4418449.0475638356"
            },
            "orbiting_body": "Earth"
        }
    ],
    "orbital_data": {
        "orbit_id": "3",
        "orbit_determination_date": "2017-04-06 08:24:33",
        "first_observation_date": "2016-08-10",
        "last_observation_date": "2016-08-21",
        "data_arc_in_days": 11,
        "observations_used": 13,
        "orbit_uncertainty": "9",
        "minimum_orbit_intersection": ".0376193",
        "jupiter_tisserand_invariant": "3.179",
        "epoch_osculation": "2457611.5",
        "eccentricity": ".6212782497925988",
        "semi_major_axis": "2.479747935148878",
        "inclination": "2.885046844652642",
        "ascending_node_longitude": "100.984653016445",
        "orbital_period": "1426.296225229135",
        "perihelion_distance": ".9391344780727724",
        "perihelion_argument": "280.5107838702252",
        "aphelion_distance": "4.020361392224984",
        "perihelion_time": "2457666.194102584464",
        "mean_anomaly": "346.1950998802904",
        "mean_motion": ".252401986089647",
        "equinox": "J2000",
        "orbit_class": {
            "orbit_class_type": "APO",
            "orbit_class_description": "Near-Earth asteroid orbits which cross the Earth’s orbit similar to that of 1862 Apollo",
            "orbit_class_range": "a (semi-major axis) > 1.0 AU; q (perihelion) < 1.017 AU"
        }
    },
    "is_sentry_object": false
}